{
    "links": {
        "self": "http://www.neowsapp.com/rest/v1/neo/3394536?api_key=iIulBulltgU6a56xZRHN4H3l9WmuAYTsLGpBGhQ2"
    },
    "id": "3394536",
    "neo_reference_id": "3394536",
    "name": "(2007 VE184)",
    "designation": "2007 VE184",
    "nasa_jpl_url": "http://ssd.jpl.nasa.gov/sbdb.cgi?sstr=3394536",
    "absolute_magnitude_h": 26.0,
    "estimated_diameter": {
        "kilometers": {
            "estimated_diameter_min": 0.0167708462,
            "estimated_diameter_max": 0.0375007522
        },
        "meters": {
            "estimated_diameter_min": 16.7708462163,
            "estimated_diameter_max": 37.5007521798
        },
        "miles": {
            "estimated_diameter_min": 0.0104209175,
            "estimated_diameter_max": 0.0233018799
        },
        "feet": {
            "estimated_diameter_min": 55.0224631002,
            "estimated_diameter_max": 123.0339677816
        }
    },
    "is_potentially_hazardous_asteroid": false,
    "close_approach_data": [
        {
            "close_approach_date": "2007-11-04",
            "close_approach_date_full": "2007-Nov-04 16:47",
            "epoch_date_close_approach": 1194194820000,
            "relative_velocity": {
                "kilometers_per_second": "6.3032754174",
                "kilometers_per_hour": "22691.7915026719",
                "miles_per_hour": "14099.7967812019"
            },
            "miss_distance": {
                "astronomical": "0.0641120326",
                "lunar": "24.9395806814",
                "kilometers": "9591023.518330562",
                "miles": "5959585.6646312756"
            },
            "orbiting_body": "Earth"
        }
    ],
    "orbital_data": {
        "orbit_id": "6",
        "orbit_determination_date": "2017-04-06 09:05:14",
        "first_observation_date": "2007-11-11",
        "last_observation_date": "2007-11-13",
        "data_arc_in_days": 2,
        "observations_used": 18,
        "orbit_uncertainty": "8",
        "minimum_orbit_intersection": ".0547778",
        "jupiter_tisserand_invariant": "3.627",
        "epoch_osculation": "2454416.5",
        "eccentricity": ".4905730463526911",
        "semi_major_axis": "2.053882100680814",
        "inclination": "2.950292086302268",
        "ascending_node_longitude": "231.5013995923479",
        "orbital_period": "1075.131761657045",
        "perihelion_distance": "1.046302901700562",
        "perihelion_argument": "161.3631749856061",
        "aphelion_distance": "3.061461299661065",
        "perihelion_time": "2454402.602939028472",
        "mean_anomaly": "4.653329134318665",
        "mean_motion": ".3348426796034288",
        "equinox": "J2000",
        "orbit_class": {
            "orbit_class_type": "AMO",
            "orbit_class_description": "Near-Earth asteroid orbits similar to that of 1221 Amor",
            "orbit_class_range": "1.017 AU < q (perihelion) < 1.3 AU"
        }
    },
    "is_sentry_object": false
}